QIANFAN-49              
1 62250U 24232P   25219.59677447 -.00000039  00000+0 -78885-4 0  9999
2 62250  88.9929  54.0843 0013532 195.4196 164.6545 13.50956263 50674
QIANFAN-50              
1 62251U 24232Q   25219.54759219  .00000051  00000+0  61049-4 0  9999
2 62251  88.9935  54.0905 0015095 197.4601 162.6033 13.50963139 50692
QIANFAN-51              
1 62252U 24232R   25219.60517708  .00000059  00000+0  73331-4 0  9997
2 62252  88.9928  54.0863 0012498 199.8180 160.2488 13.50958663 50694
QIANFAN-52              
1 62253U 24232S   25219.55989484  .00000055  00000+0  67137-4 0  9999
2 62253  88.9924  53.9693 0014744 192.9449 167.1326 13.50959836 50777
QIANFAN-53              
1 62254U 24232T   25219.61344534  .00000051  00000+0  60348-4 0  9991
2 62254  88.9932  54.0590 0013598 193.3488 166.7305 13.50953470 50746
QIANFAN-54              
1 62255U 24232U   25219.58043130  .00000048  00000+0  55382-4 0  9994
2 62255  88.9923  53.7517 0000898 172.7893 187.3271 13.50952334 82241
QIANFAN-55              
1 62785U 25016A   25219.53236285  .00000140  00000+0  19881-3 0  9999
2 62785  88.9843 116.3340 0018031   2.9513 357.1742 13.50964811 30012
QIANFAN-56              
1 62786U 25016B   25219.62292152  .00000120  00000+0  16732-3 0  9995
2 62786  88.9815 116.1957 0016764   5.5293 354.6040 13.50956453 30071
